P/2021 L2 (Leonard),e,21.0652,266.6544,51.4950,4.048490,0.1209942,0.52081230,121.8677,04/26.0/2024,2000,g 17.0,4.0
# From MPEC 2024-H50
C/2021 L3 (Borisov),h,02/14.6421/2022,78.5645,344.9957,91.6310,1.004441,8.458646,2000,6.0,4.0
# From MPEC 2022-TA0
P/2021 N1 (ZTF),e,11.4896,301.1498,21.2388,2.978730,0.1917156,0.67598396,202.2539,04/26.0/2024,2000,g 19.0,4.0
# From MPEC 2024-GJ3
P/2021 N2 (Fuls),e,13.0612,221.7317,177.5464,6.942937,0.0538752,0.45256386,48.1500,04/26.0/2024,2000,g  9.5,4.0
# From MPEC 2022-YB4
C/2021 N3 (PANSTARRS),e,26.7487,337.5019,304.7147,145.8611,0.0005595,0.96080607,0.7534,04/26.0/2024,2000,g  8.5,4.0
# From MPEC 2022-A21
C/2021 O1 (Nishimura),e,27.5945,41.5933,74.3913,2811,0.0000066,0.99972114,0.0000,08/14.2788/2021,2000,g 10.5,4.0
# From MPEC 2022-L66
C/2021 O3 (PANSTARRS),h,04/21.1110/2022,56.8001,188.9595,299.9579,1.000043,0.286092,2000,10.5,4.0
# From MPEC 2024-F34
C/2021 P1 (PANSTARRS),e,51.6343,359.6875,40.4989,2864,0.0000064,0.99847174,0.0000,06/02.5937/2022,2000,g 11.0,4.0
# From MPEC 2023-R20
C/2021 P2 (PANSTARRS),e,150.0628,32.0828,76.7187,4998,0.0000028,0.99898566,0.0000,01/22.9833/2023,2000,g  9.0,4.0
# From MPEC 2024-GJ3
P/2021 P3 (PANSTARRS),e,27.1614,358.2443,334.0805,4.412417,0.1063382,0.33869705,112.9728,04/26.0/2024,2000,g 14.0,4.0
# From MPEC 2023-A50
C/2021 P4 (ATLAS),e,56.3258,348.0661,175.7955,297.3198,0.0001923,0.99636903,0.0000,07/30.3379/2022,2000,g  9.5,4.0
# From MPEC 2023-E68
P/2021 PE20 (ATLAS),e,20.0016,99.6265,210.4682,3.745933,0.1359453,0.66998851,143.3568,04/26.0/2024,2000,g 17.0,4.0
# From MPEC 2023-FK0
C/2021 Q3 (ATLAS),e,77.7392,307.9149,114.1178,75.62575,0.0014986,0.93116413,1.2299,04/26.0/2024,2000,g  8.0,4.0
# From MPEC 2024-BE0
C/2021 Q4 (Fuls),h,06/11.4064/2023,71.4855,183.3281,147.0659,1.002895,7.565303,2000,6.0,4.0
# From MPEC 2022-C56
P/2021 Q5 (ATLAS),e,10.7396,239.7573,180.9330,3.286881,0.1653972,0.62466508,160.2864,04/26.0/2024,2000,g 15.0,4.0
# From MPEC 2023-XP6
C/2021 Q6 (PANSTARRS),h,03/25.0856/2024,161.8460,133.5384,141.0262,1.001330,8.707847,2000,6.0,4.0
# From MPEC 2023-FK0
C/2021 QM45 (PANSTARRS),e,22.8157,354.5964,72.8566,389.1152,0.0001284,0.99286905,0.0000,08/13.6365/2022,2000,g 11.0,4.0
# From MPEC 2022-X67
P/2021 R1 (PANSTARRS),e,5.5216,143.2432,220.2398,8.297938,0.0412334,0.41124702,35.6280,04/26.0/2024,2000,g 11.0,4.0
# From MPEC 2022-X67
C/2021 R2 (PANSTARRS),e,134.4835,16.3074,32.5028,4088,0.0000038,0.99821033,0.0000,12/27.7442/2021,2000,g  7.5,4.0
# From MPEC 2021-W31
P/2021 R3 (PANSTARRS),e,19.9327,304.1944,2.6963,3.771009,0.1345915,0.33102573,143.5605,04/26.0/2024,2000,g 16.0,4.0
# From MPEC 2021-W31
P/2021 R4 (Wierzchos),e,21.0256,321.2954,56.7155,5.625252,0.0738739,0.58581522,68.3329,04/26.0/2024,2000,g 16.0,4.0
# From MPEC 2024-F34
P/2021 R5 (Rankin),e,7.8545,219.9540,167.5374,4.795776,0.0938460,0.30648113,78.2943,04/26.0/2024,2000,g 12.0,4.0
# From MPEC 2021-W31
P/2021 R6 (Groeller),e,34.9154,176.1594,220.8171,6.285091,0.0625513,0.59339206,56.7217,04/26.0/2024,2000,g 14.5,4.0
# From MPEC 2022-X67
C/2021 R7 (PANSTARRS),e,158.8637,170.1690,140.3127,870.4727,0.0000384,0.99350724,0.0000,04/16.6134/2021,2000,g 10.5,4.0
# From MPEC 2021-Y10
P/2021 R8 (Sheppard),e,2.2032,167.0745,190.8333,3.019038,0.1878890,0.29304321,175.0496,04/26.0/2024,2000,g 18.5,4.0
# From MPEC 2023-J29
C/2021 S1 (ATLAS),h,03/01.5183/2022,52.0536,299.8705,148.2361,1.002569,6.120827,2000,7.0,4.0
# From MPEC 2024-H50
C/2021 S3 (PANSTARRS),h,02/14.7103/2024,58.5330,215.6211,6.8540,1.000271,1.320211,2000,5.5,4.0
# From MPEC 2024-GJ3
C/2021 S4 (Tsuchinshan),e,17.4783,5.4820,72.9281,162.4616,0.0004760,0.95882477,0.0543,04/26.0/2024,2000,g  6.5,4.0
# From MPEC 2022-OB6
C/2021 T1 (Lemmon),e,140.3612,56.8445,51.5610,1890,0.0000120,0.99838018,0.0000,10/14.3831/2021,2000,g 12.5,4.0
# From MPEC 2023-A50
C/2021 T2 (Fuls),h,06/08.0506/2022,117.5387,223.2337,263.5852,1.000505,1.246733,2000,12.0,4.0
# From MPEC 2024-H50
C/2021 T4 (Lemmon),e,160.7780,257.8875,329.8175,25348,0.0000002,0.99994149,0.0000,07/31.5404/2023,2000,g  7.5,4.0
# From MPEC 2022-ED3
P/2021 U1 (Wierzchos),e,30.5519,246.7919,145.1645,8.533315,0.0395392,0.71300450,37.0820,04/26.0/2024,2000,g 14.5,4.0
# From MPEC 2022-L66
P/2021 U3 (Attard-Maury),e,69.9607,75.0963,335.2755,4.195005,0.1147111,0.54980413,104.8551,04/26.0/2024,2000,g 15.5,4.0
# From MPEC 2021-W31
C/2021 U4 (Leonard),e,152.8892,241.8085,237.3330,45.20989,0.0032423,0.96043031,2.7751,04/26.0/2024,2000,g 17.0,4.0
# From MPEC 2022-WQ9
C/2021 U5 (Catalina),e,39.0451,182.7337,321.4262,217.6676,0.0003069,0.98915520,0.0000,01/26.6736/2022,2000,g 13.0,4.0
# From MPEC 2022-CN4
C/2021 V1 (Rankin),e,71.4522,207.6714,195.1689,672.6855,0.0000565,0.99551645,0.0000,04/30.5758/2022,2000,g 13.0,4.0
# From MPEC 2024-H50
P/2021 V2 (Fuls),e,12.6948,232.2756,259.8546,9.075226,0.0360510,0.61471117,16.5990,04/26.0/2024,2000,g 10.0,4.0
# From MPEC 2024-DC6
C/2021 X1 (Maury-Attard),h,05/27.1369/2023,140.0984,10.5924,334.5651,1.000258,3.233458,2000,7.0,4.0
# From MPEC 2024-E08
C/2021 X2 (Bok),h,07/08.1142/2022,137.1610,228.8236,193.3188,1.000953,2.995869,2000,13.0,4.0
# From MPEC 2024-GJ3
C/2021 Y1 (ATLAS),h,04/30.7577/2023,77.1938,244.7672,245.8336,1.001169,2.032546,2000,7.0,4.0
# From MPEC 2022-YN2
C/2022 A1 (Sarneczky),e,116.5369,285.5079,201.2425,352.2298,0.0001491,0.99643916,0.0000,01/31.0531/2022,2000,g 18.0,4.0
# From MPEC 2024-DC6
C/2022 A2 (PANSTARRS),h,02/18.2303/2023,108.1332,171.5836,88.3679,1.000251,1.735448,2000,9.5,4.0
# From MPEC 2024-H50
C/2022 A3 (Lemmon-ATLAS),e,88.3410,325.4737,234.8518,864.5768,0.0000388,0.99571622,0.0000,09/28.8724/2023,2000,g  8.0,4.0
# From MPEC 2022-K19
P/2022 B1 (Wierzchos),e,10.9904,325.4308,148.8719,5.467200,0.0771004,0.65338128,60.9437,04/26.0/2024,2000,g 16.5,4.0
# From MPEC 2022-YB4
A/2022 B3,e,132.0538,286.1880,150.6957,702.7855,0.0000529,0.99473472,0.0000,01/17.1930/2022,2000,g 16.5,2.0
# From MPEC 2022-GA9
C/2022 B4 (Bok),e,20.0471,340.6003,152.9517,385.1575,0.0001304,0.99642437,0.0000,01/30.0617/2022,2000,g 21.0,4.0
# From MPEC 2023-J29
P/2022 BV9 (Lemmon),e,11.9294,337.3100,16.3154,4.363341,0.1081373,0.23424099,138.4404,04/26.0/2024,2000,g  9.5,4.0
# From MPEC 2023-J29
P/2022 C1 (PANSTARRS),e,4.7623,113.1174,9.3699,7.227559,0.0507244,0.44873865,45.8200,04/26.0/2024,2000,g 12.0,4.0
# From MPEC 2023-VM5
P/2022 C2 (PANSTARRS),e,9.9826,135.2605,89.2186,6.036765,0.0664504,0.44186719,41.7932,04/26.0/2024,2000,g 12.5,4.0
# From MPEC 2023-UR6
P/2022 C3 (PANSTARRS),e,12.8204,139.0414,93.8758,9.623522,0.0330144,0.54557291,21.9689,04/26.0/2024,2000,g 11.5,4.0
# From MPEC 2022-K19
P/2022 D1 (PANSTARRS),e,44.0778,47.9584,88.6578,7.403363,0.0489283,0.54756456,47.5485,04/26.0/2024,2000,g 12.5,4.0
# From MPEC 2022-K19
C/2022 D2 (Kowalski),e,22.6637,312.4128,177.8019,374.9876,0.0001357,0.99585761,0.0000,03/27.7111/2022,2000,g 17.0,4.0
# From MPEC 2024-H50
C/2022 E2 (ATLAS),h,09/14.1018/2024,137.1254,125.3703,41.7141,1.000781,3.666342,2000,5.0,4.0
# From MPEC 2024-GJ3
C/2022 E3 (ZTF),h,01/12.7204/2023,109.1684,302.5487,145.8096,1.000072,1.112454,2000,7.5,4.0
# From MPEC 2024-GJ3
C/2022 F1 (ATLAS),e,57.9838,350.6434,278.2924,4170,0.0000037,0.99856695,0.0000,08/05.2060/2022,2000,g  7.0,4.0
# From MPEC 2022-QD9
C/2022 F2 (NEOWISE),e,97.3142,58.7830,200.6227,23.97809,0.0083943,0.93374636,6.4203,04/26.0/2024,2000,g 14.5,4.0
# From MPEC 2024-GJ3
C/2022 H1 (PANSTARRS),e,49.8614,6.3525,246.3059,905.0708,0.0000362,0.99150358,0.0000,01/19.1352/2024,2000,g  6.0,4.0
# From MPEC 2022-VC5
C/2022 J1 (Maury-Attard),e,105.9526,280.7686,305.6602,47.61234,0.0030000,0.96632147,2.3907,04/26.0/2024,2000,g 14.9,4.0
# From MPEC 2023-M14
C/2022 J2 (Bok),e,149.1374,252.6476,133.0726,90.45950,0.0011456,0.97982059,0.0000,10/26.9573/2022,2000,g  9.0,4.0
# From MPEC 2024-GJ3
C/2022 JK5 (PANSTARRS),e,16.8324,59.6444,247.2499,43.84102,0.0033953,0.93867178,1.2322,04/26.0/2024,2000,g 11.0,4.0
# From MPEC 2022-ST7
C/2022 K1 (Leonard),h,12/17.2120/2021,41.9650,136.3359,142.6337,1.001868,3.988913,2000,11.0,4.0
# From MPEC 2023-CD7
C/2022 L1 (Catalina),e,123.4496,300.0328,59.8353,497.7122,0.0000888,0.99680333,0.0000,09/28.1830/2022,2000,g 15.8,4.0
# From MPEC 2024-GJ3
C/2022 L2 (ATLAS),h,03/12.2676/2024,129.3141,39.2412,199.9193,1.001346,2.692711,2000,6.5,4.0
# From MPEC 2024-DC6
P/2022 L3 (ATLAS),e,21.5428,29.8080,10.3665,6.503004,0.0594337,0.62771087,32.3319,04/26.0/2024,2000,g 16.5,4.0
# From MPEC 2022-N37
C/2022 L4 (PANSTARRS),e,141.2447,66.0652,125.3222,285.7165,0.0002041,0.98945306,0.0000,12/08.9344/2021,2000,g 14.0,4.0
# From MPEC 2024-GJ3
C/2022 N1 (Attard-Maury),e,164.7339,301.8745,41.0440,36.99051,0.0043810,0.95997749,2.6021,04/26.0/2024,2000,g 16.9,4.0
# From MPEC 2023-XP6
C/2022 N2 (PANSTARRS),h,07/31.6010/2025,5.5027,319.7397,75.3655,1.003718,3.826009,2000,6.0,4.0
# From MPEC 2024-A43
C/2022 O1 (ATLAS),h,02/15.9185/2022,71.0413,49.9173,268.9331,1.002948,7.432685,2000,6.0,4.0
# From MPEC 2023-HD1
P/2022 O2 (PANSTARRS),e,9.4233,330.4913,48.6386,6.305615,0.0622462,0.72130189,29.5657,04/26.0/2024,2000,g 16.2,4.0
# From MPEC 2023-N01
C/2022 P1 (NEOWISE),e,154.6035,205.0820,249.9373,18.48351,0.0124030,0.91371657,6.3807,04/26.0/2024,2000,g 13.0,4.0
# From MPEC 2023-XP6
P/2022 P2 (ZTF),e,12.4399,291.2020,137.6843,4.488878,0.1036328,0.55818690,67.8829,04/26.0/2024,2000,g 12.5,4.0
# From MPEC 2023-HD1
C/2022 P3 (ZTF),e,59.5170,72.2188,0.1497,252.8620,0.0002451,0.98986455,0.0000,07/27.4566/2022,2000,g  9.0,4.0
# From MPEC 2023-R20
C/2022 Q2 (ATLAS),e,151.4804,352.9521,44.0705,32.85171,0.0052344,0.94996125,2.3574,04/26.0/2024,2000,g 13.0,4.0
# From MPEC 2024-GJ3
C/2022 QE78 (ATLAS),h,09/10.2532/2025,36.5518,119.9380,0.3864,1.004013,5.479656,2000,5.0,4.0
# From MPEC 2023-W26
P/2022 R1 (PANSTARRS),e,7.3722,175.9019,221.9987,7.208424,0.0509265,0.50451248,10.2820,04/26.0/2024,2000,g 11.5,4.0
# From MPEC 2022-Y15
C/2022 R2 (ATLAS),e,52.9072,60.4125,78.3404,421.8500,0.0001138,0.99850257,0.0000,10/25.2925/2022,2000,g 17.0,4.0
# From MPEC 2024-H50
